start=new Date('2021-10-24T00:00:00.000Z').valueOf();
sats=[{"PERIOD":"95.592","SEMIMAJOR_AXIS":"6925.358","RCS_SIZE":"LARGE","ECCENTRICITY":"0.00018510","TLE_LINE1":"1 46672U 20073C   21296.26098792  .00003919  00000-0  28184-3 0  9998","RA_OF_ASC_NODE":"217.2417","REV_AT_EPOCH":"5621","PERIAPSIS":"545.941","MEAN_ELEMENT_THEORY":"SGP4","LAUNCH_DATE":"2020-10-18","TLE_LINE2":"2 46672  53.0533 217.2417 0001851  75.1391 284.9803 15.06396950 56213","EPOCH":"2021-10-23T06:15:49.356288","MEAN_MOTION_DOT":"0.00003919","OBJECT_TYPE":"PAYLOAD","ARG_OF_PERICENTER":"75.1391","SITE":"AFETR","OBJECT_NAME":"STARLINK-1716","FILE":"3181152","APOAPSIS":"548.505","ELEMENT_SET_NO":"999","TIME_SYSTEM":"UTC","DECAY_DATE":null,"OBJECT_ID":"2020-073C","MEAN_MOTION":"15.06396950","MEAN_MOTION_DDOT":"0.0000000000000","COUNTRY_CODE":"US","MEAN_ANOMALY":"284.9803","NORAD_CAT_ID":"46672","REF_FRAME":"TEME","GP_ID":"188024447","BSTAR":"0.00028184000000","EPHEMERIS_TYPE":"0","INCLINATION":"53.0533","CLASSIFICATION_TYPE":"U","CENTER_NAME":"EARTH"},{"OBJECT_TYPE":"PAYLOAD","MEAN_MOTION_DOT":"-0.00000044","TLE_LINE2":"2 46673  53.0545 230.8963 0001708  66.5642 293.5527 15.06387864 56042","EPOCH":"2021-10-23T13:30:20.527776","REV_AT_EPOCH":"5604","LAUNCH_DATE":"2020-10-18","PERIAPSIS":"546.068","MEAN_ELEMENT_THEORY":"SGP4","RA_OF_ASC_NODE":"230.8963","RCS_SIZE":"LARGE","ECCENTRICITY":"0.00017080","SEMIMAJOR_AXIS":"6925.386","TLE_LINE1":"1 46673U 20073D   21296.56273759 -.00000044  00000-0  15964-4 0  9990","PERIOD":"95.593","CLASSIFICATION_TYPE":"U","INCLINATION":"53.0545","CENTER_NAME":"EARTH","EPHEMERIS_TYPE":"0","GP_ID":"188025199","REF_FRAME":"TEME","BSTAR":"0.00001596400000","COUNTRY_CODE":"US","NORAD_CAT_ID":"46673","MEAN_ANOMALY":"293.5527","OBJECT_ID":"2020-073D","DECAY_DATE":null,"MEAN_MOTION_DDOT":"0.0000000000000","MEAN_MOTION":"15.06387864","TIME_SYSTEM":"UTC","APOAPSIS":"548.434","FILE":"3181152","ELEMENT_SET_NO":"999","OBJECT_NAME":"STARLINK-1717","ARG_OF_PERICENTER":"66.5642","SITE":"AFETR"},{"NORAD_CAT_ID":"46674","MEAN_ANOMALY":"290.3445","COUNTRY_CODE":"US","BSTAR":"0.00025492000000","REF_FRAME":"TEME","GP_ID":"188024950","EPHEMERIS_TYPE":"0","CENTER_NAME":"EARTH","CLASSIFICATION_TYPE":"U","INCLINATION":"53.0538","SITE":"AFETR","ARG_OF_PERICENTER":"69.7736","ELEMENT_SET_NO":"999","FILE":"3181152","APOAPSIS":"548.439","OBJECT_NAME":"STARLINK-1718","TIME_SYSTEM":"UTC","MEAN_MOTION_DDOT":"0.0000000000000","MEAN_MOTION":"15.06405423","OBJECT_ID":"2020-073E","DECAY_DATE":null,"LAUNCH_DATE":"2020-10-18","PERIAPSIS":"545.955","MEAN_ELEMENT_THEORY":"SGP4","REV_AT_EPOCH":"5628","EPOCH":"2021-10-23T18:01:43.828608","TLE_LINE2":"2 46674  53.0538 215.0476 0001794  69.7736 290.3445 15.06405423 56285","OBJECT_TYPE":"PAYLOAD","MEAN_MOTION_DOT":"0.00003518","PERIOD":"95.592","TLE_LINE1":"1 46674U 20073E   21296.75120172  .00003518  00000-0  25492-3 0  9996","ECCENTRICITY":"0.00017940","RCS_SIZE":"LARGE","SEMIMAJOR_AXIS":"6925.332","RA_OF_ASC_NODE":"215.0476"},{"EPHEMERIS_TYPE":"0","INCLINATION":"53.0547","CLASSIFICATION_TYPE":"U","CENTER_NAME":"EARTH","COUNTRY_CODE":"US","NORAD_CAT_ID":"46675","MEAN_ANOMALY":"300.0293","REF_FRAME":"TEME","GP_ID":"188023698","BSTAR":"-0.00000059103000","TIME_SYSTEM":"UTC","DECAY_DATE":null,"OBJECT_ID":"2020-073F","MEAN_MOTION":"15.06396341","MEAN_MOTION_DDOT":"0.0000000000000","SITE":"AFETR","ARG_OF_PERICENTER":"60.0868","OBJECT_NAME":"STARLINK-1720","FILE":"3181152","ELEMENT_SET_NO":"999","APOAPSIS":"548.426","TLE_LINE2":"2 46675  53.0547 215.0666 0001734  60.0868 300.0293 15.06396341 56289","EPOCH":"2021-10-23T17:56:25.787616","MEAN_MOTION_DOT":"-0.00000290","OBJECT_TYPE":"PAYLOAD","REV_AT_EPOCH":"5628","PERIAPSIS":"546.024","MEAN_ELEMENT_THEORY":"SGP4","LAUNCH_DATE":"2020-10-18","SEMIMAJOR_AXIS":"6925.360","RCS_SIZE":"LARGE","ECCENTRICITY":"0.00017340","TLE_LINE1":"1 46675U 20073F   21296.74752069 -.00000290  00000-0 -59103-6 0  9997","RA_OF_ASC_NODE":"215.0666","PERIOD":"95.592"},{"TIME_SYSTEM":"UTC","MEAN_MOTION_DDOT":"0.0000000000000","MEAN_MOTION":"15.86839654","OBJECT_ID":"2020-073G","DECAY_DATE":null,"SITE":"AFETR","ARG_OF_PERICENTER":"143.2601","ELEMENT_SET_NO":"999","FILE":"3181152","APOAPSIS":"313.678","OBJECT_NAME":"STARLINK-1731","EPHEMERIS_TYPE":"0","CENTER_NAME":"EARTH","CLASSIFICATION_TYPE":"U","INCLINATION":"53.0548","NORAD_CAT_ID":"46676","MEAN_ANOMALY":"216.8682","COUNTRY_CODE":"US","BSTAR":"0.00098575000000","GP_ID":"188023948","REF_FRAME":"TEME","TLE_LINE1":"1 46676U 20073G   21296.77262700  .00265640  00000-0  98575-3 0  9992","ECCENTRICITY":"0.00037760","RCS_SIZE":"LARGE","SEMIMAJOR_AXIS":"6689.287","RA_OF_ASC_NODE":"142.8582","PERIOD":"90.746","EPOCH":"2021-10-23T18:32:34.972800","TLE_LINE2":"2 46676  53.0548 142.8582 0003776 143.2601 216.8682 15.86839654 57309","OBJECT_TYPE":"PAYLOAD","MEAN_MOTION_DOT":"0.00265640","LAUNCH_DATE":"2020-10-18","MEAN_ELEMENT_THEORY":"SGP4","PERIAPSIS":"308.626","REV_AT_EPOCH":"5730"},{"TLE_LINE1":"1 46677U 20073H   21296.47844530  .00001698  00000-0  13285-3 0  9993","SEMIMAJOR_AXIS":"6925.344","RCS_SIZE":"LARGE","ECCENTRICITY":"0.00017540","RA_OF_ASC_NODE":"216.2772","PERIOD":"95.592","EPOCH":"2021-10-23T11:28:57.673920","TLE_LINE2":"2 46677  53.0539 216.2772 0001754  76.4282 283.6902 15.06401633 56246","MEAN_MOTION_DOT":"0.00001698","OBJECT_TYPE":"PAYLOAD","MEAN_ELEMENT_THEORY":"SGP4","PERIAPSIS":"545.994","LAUNCH_DATE":"2020-10-18","REV_AT_EPOCH":"5624","TIME_SYSTEM":"UTC","MEAN_MOTION":"15.06401633","MEAN_MOTION_DDOT":"0.0000000000000","DECAY_DATE":null,"OBJECT_ID":"2020-073H","SITE":"AFETR","ARG_OF_PERICENTER":"76.4282","OBJECT_NAME":"STARLINK-1766","FILE":"3181152","ELEMENT_SET_NO":"999","APOAPSIS":"548.423","EPHEMERIS_TYPE":"0","CENTER_NAME":"EARTH","INCLINATION":"53.0539","CLASSIFICATION_TYPE":"U","NORAD_CAT_ID":"46677","MEAN_ANOMALY":"283.6902","COUNTRY_CODE":"US","BSTAR":"0.00013285000000","GP_ID":"188024700","REF_FRAME":"TEME"},{"REF_FRAME":"TEME","GP_ID":"188025450","BSTAR":"0.00012174000000","COUNTRY_CODE":"US","MEAN_ANOMALY":"225.0494","NORAD_CAT_ID":"46679","INCLINATION":"53.0545","CLASSIFICATION_TYPE":"U","CENTER_NAME":"EARTH","EPHEMERIS_TYPE":"0","OBJECT_NAME":"STARLINK-1773","ELEMENT_SET_NO":"999","FILE":"3181152","APOAPSIS":"548.364","ARG_OF_PERICENTER":"135.0632","SITE":"AFETR","DECAY_DATE":null,"OBJECT_ID":"2020-073K","MEAN_MOTION":"15.06405755","MEAN_MOTION_DDOT":"0.0000000000000","TIME_SYSTEM":"UTC","REV_AT_EPOCH":"5656","PERIAPSIS":"546.028","MEAN_ELEMENT_THEORY":"SGP4","LAUNCH_DATE":"2020-10-18","MEAN_MOTION_DOT":"0.00001532","OBJECT_TYPE":"PAYLOAD","TLE_LINE2":"2 46679  53.0545 195.0358 0001687 135.0632 225.0494 15.06405755 56565","EPOCH":"2021-10-23T17:59:04.583040","PERIOD":"95.592","RA_OF_ASC_NODE":"195.0358","RCS_SIZE":"LARGE","SEMIMAJOR_AXIS":"6925.331","ECCENTRICITY":"0.00016870","TLE_LINE1":"1 46679U 20073K   21296.74935860  .00001532  00000-0  12174-3 0  9995"},{"GP_ID":"188024198","REF_FRAME":"TEME","BSTAR":"0.00014302000000","COUNTRY_CODE":"US","NORAD_CAT_ID":"46680","MEAN_ANOMALY":"287.4300","INCLINATION":"53.0539","CLASSIFICATION_TYPE":"U","CENTER_NAME":"EARTH","EPHEMERIS_TYPE":"0","OBJECT_NAME":"STARLINK-1774","APOAPSIS":"548.504","FILE":"3181152","ELEMENT_SET_NO":"999","SITE":"AFETR","ARG_OF_PERICENTER":"72.6893","DECAY_DATE":null,"OBJECT_ID":"2020-073L","MEAN_MOTION":"15.06401642","MEAN_MOTION_DDOT":"0.0000000000000","TIME_SYSTEM":"UTC","REV_AT_EPOCH":"5604","MEAN_ELEMENT_THEORY":"SGP4","PERIAPSIS":"545.913","LAUNCH_DATE":"2020-10-18","MEAN_MOTION_DOT":"0.00001849","OBJECT_TYPE":"PAYLOAD","TLE_LINE2":"2 46680  53.0539 230.9265 0001870  72.6893 287.4300 15.06401642 56047","EPOCH":"2021-10-23T13:15:47.282976","PERIOD":"95.592","RA_OF_ASC_NODE":"230.9265","RCS_SIZE":"LARGE","ECCENTRICITY":"0.00018700","SEMIMAJOR_AXIS":"6925.344","TLE_LINE1":"1 46680U 20073L   21296.55263059  .00001849  00000-0  14302-3 0  9996"},{"CENTER_NAME":"EARTH","CLASSIFICATION_TYPE":"U","INCLINATION":"53.0559","EPHEMERIS_TYPE":"0","BSTAR":"0.00002814300000","REF_FRAME":"TEME","GP_ID":"188024448","NORAD_CAT_ID":"46681","MEAN_ANOMALY":"287.3101","COUNTRY_CODE":"US","MEAN_MOTION_DDOT":"0.0000000000000","MEAN_MOTION":"15.06395293","OBJECT_ID":"2020-073M","DECAY_DATE":null,"TIME_SYSTEM":"UTC","FILE":"3181152","APOAPSIS":"548.430","ELEMENT_SET_NO":"999","OBJECT_NAME":"STARLINK-1775","SITE":"AFETR","ARG_OF_PERICENTER":"72.8078","OBJECT_TYPE":"PAYLOAD","MEAN_MOTION_DOT":"0.00000138","EPOCH":"2021-10-23T12:33:19.308960","TLE_LINE2":"2 46681  53.0559 231.0694 0001736  72.8078 287.3101 15.06395293 56037","LAUNCH_DATE":"2020-10-18","PERIAPSIS":"546.026","MEAN_ELEMENT_THEORY":"SGP4","REV_AT_EPOCH":"5603","RA_OF_ASC_NODE":"231.0694","TLE_LINE1":"1 46681U 20073M   21296.52314015  .00000138  00000-0  28143-4 0  9992","ECCENTRICITY":"0.00017360","RCS_SIZE":"LARGE","SEMIMAJOR_AXIS":"6925.363","PERIOD":"95.592"},{"LAUNCH_DATE":"2020-10-18","PERIAPSIS":"546.032","MEAN_ELEMENT_THEORY":"SGP4","REV_AT_EPOCH":"5604","EPOCH":"2021-10-23T13:10:28.308864","TLE_LINE2":"2 46682  53.0531 230.9557 0001743  73.1061 287.0119 15.06391587 56047","OBJECT_TYPE":"PAYLOAD","MEAN_MOTION_DOT":"-0.00000279","PERIOD":"95.593","TLE_LINE1":"1 46682U 20073N   21296.54893876 -.00000279  00000-0  16331-6 0  9997","ECCENTRICITY":"0.00017430","RCS_SIZE":"LARGE","SEMIMAJOR_AXIS":"6925.374","RA_OF_ASC_NODE":"230.9557","MEAN_ANOMALY":"287.0119","NORAD_CAT_ID":"46682","COUNTRY_CODE":"US","BSTAR":"0.00000016331000","REF_FRAME":"TEME","GP_ID":"188025200","EPHEMERIS_TYPE":"0","CENTER_NAME":"EARTH","CLASSIFICATION_TYPE":"U","INCLINATION":"53.0531","SITE":"AFETR","ARG_OF_PERICENTER":"73.1061","APOAPSIS":"548.446","FILE":"3181152","ELEMENT_SET_NO":"999","OBJECT_NAME":"STARLINK-1776","TIME_SYSTEM":"UTC","MEAN_MOTION_DDOT":"0.0000000000000","MEAN_MOTION":"15.06391587","OBJECT_ID":"2020-073N","DECAY_DATE":null}];
